GPS BIIA-23 (PRN 18)    
1 22877U 93068A   18097.48878414  .00000002  00000-0  00000+0 0  9992
2 22877  54.3805  86.4049 0141272  74.0177  36.5943  2.00563877179136
GPS BIIR-2  (PRN 13)    
1 24876U 97035A   18097.22912025 -.00000014  00000-0  00000+0 0  9994
2 24876  55.4980 215.5516 0033105  92.1718 268.2002  2.00565307151729
GPS BIIR-3  (PRN 11)    
1 25933U 99055A   18097.16942490 -.00000037  00000-0  00000+0 0  9990
2 25933  51.8415  64.7848 0165122 100.3000 141.1021  2.00568921135536
GPS BIIR-4  (PRN 20)    
1 26360U 00025A   18097.43843618 -.00000003  00000-0  00000+0 0  9999
2 26360  53.1789 142.6129 0040693 110.8852  50.7728  2.00428413131237
GPS BIIR-5  (PRN 28)    
1 26407U 00040A   18097.23700170 -.00000071  00000-0  00000+0 0  9996
2 26407  56.5146 333.6678 0197983 272.8165  45.8401  2.00563810129911
GPS BIIR-6  (PRN 14)    
1 26605U 00071A   18097.46034736 -.00000018  00000-0  00000+0 0  9994
2 26605  55.0706 213.1616 0097920 248.3206 135.7863  2.00554468127519
GPS BIIR-8  (PRN 16)    
1 27663U 03005A   18097.38104817 -.00000070  00000-0  00000+0 0  9996
2 27663  56.5798 333.4167 0099060  27.1613 153.7384  2.00571466111282
GPS BIIR-9  (PRN 21)    
1 27704U 03010A   18097.37106402 -.00000000  00000-0  00000+0 0  9992
2 27704  54.0499  86.0192 0247014 269.8766 225.1628  2.00556648110072
GPS BIIR-10 (PRN 22)    
1 28129U 03058A   18096.42138400 -.00000010  00000-0  00000-0 0  9996
2 28129  52.9913 145.5282 0076536 269.4721  89.7192  2.00577688104743
GPS BIIR-11 (PRN 19)    
1 28190U 04009A   18096.12314854 -.00000078  00000-0  00000+0 0  9990
2 28190  56.1453  34.3433 0095982  65.2945  77.3701  2.00560067102936
GPS BIIR-12 (PRN 23)    
1 28361U 04023A   18097.42685390 -.00000023  00000-0  00000+0 0  9996
2 28361  54.0678 207.9754 0123938 224.5568  56.0844  2.00575666101033
GPS BIIR-13 (PRN 02)    
1 28474U 04045A   18097.30989829  .00000000  00000-0  00000+0 0  9990
2 28474  54.4207  85.6077 0181026 252.9665 303.5415  2.00559038 98397
GPS BIIRM-1 (PRN 17)    
1 28874U 05038A   18097.13273981 -.00000080  00000-0  00000+0 0  9992
2 28874  56.2899  31.6051 0125332 258.1616 271.6904  2.00550853 91806
GPS BIIRM-2 (PRN 31)    
1 29486U 06042A   18097.27867184  .00000010  00000-0  00000+0 0  9999
2 29486  55.2215 270.5074 0088212 350.7989 211.4099  2.00567960 84517
GPS BIIRM-3 (PRN 12)    
1 29601U 06052A   18096.94484895 -.00000071  00000-0  00000+0 0  9994
2 29601  56.5552 332.3511 0069572  53.4470 307.2336  2.00570935 83420
GPS BIIRM-4 (PRN 15)    
1 32260U 07047A   18097.25949559 -.00000025  00000-0  00000+0 0  9991
2 32260  53.1920 204.0679 0100657  37.6325 323.0762  2.00558075 76815
GPS BIIRM-5 (PRN 29)    
1 32384U 07062A   18097.27577035 -.00000079  00000-0  00000+0 0  9992
2 32384  56.3620  32.2027 0004911  35.4673 110.5569  2.00559437 75546
GPS BIIRM-6 (PRN 07)    
1 32711U 08012A   18097.17273900  .00000009  00000-0  00000+0 0  9997
2 32711  54.9543 269.8079 0114915 215.3520 143.8621  2.00563209 73727
GPS BIIRM-8 (PRN 05)    
1 35752U 09043A   18097.14264882 -.00000006  00000-0  00000+0 0  9994
2 35752  54.3015 147.5927 0051624  32.8771 336.2278  2.00563145 63313
GPS BIIF-1  (PRN 25)    
1 36585U 10022A   18097.24354877 -.00000065  00000-0  00000+0 0  9998
2 36585  55.8490 328.9510 0072431  46.7304 136.7903  2.00565201 57551
GPS BIIF-2  (PRN 01)    
1 37753U 11036A   18097.53431090  .00000009  00000-0  00000+0 0  9994
2 37753  55.6212  89.0402 0074347  33.5758  87.1040  2.00564060 49249
GPS BIIF-3  (PRN 24)    
1 38833U 12053A   18097.35441002  .00000007  00000-0  00000+0 0  9996
2 38833  53.9836 266.4273 0067963  29.4203 330.9385  2.00565868 40311
GPS BIIF-4  (PRN 27)    
1 39166U 13023A   18097.21014027 -.00000085  00000-0  00000+0 0  9999
2 39166  55.9892  28.5213 0057039  19.9025 340.3188  2.00563233 35847
GPS BIIF-5  (PRN 30)    
1 39533U 14008A   18095.21350318 -.00000007  00000-0  00000+0 0  9999
2 39533  54.1316 271.8548 0032171 184.9545 174.9908  2.00553954 30161
GPS BIIF-6  (PRN 06)    
1 39741U 14026A   18096.99264113  .00000004  00000-0  00000+0 0  9999
2 39741  55.6051  88.5843 0014257 290.4416  69.4118  2.00572266 28480
GPS BIIF-7  (PRN 09)    
1 40105U 14045A   18097.08484214 -.00000020  00000-0  00000+0 0  9992
2 40105  54.5932 208.0555 0008397 108.1814 251.9137  2.00566188 26939
GPS BIIF-8  (PRN 03)    
1 40294U 14068A   18097.44967359 -.00000004  00000-0  00000+0 0  9994
2 40294  55.0521 148.7913 0011866  16.1625 343.9444  2.00550457 25168
GPS BIIF-9  (PRN 26)    
1 40534U 15013A   18097.09056564 -.00000066  00000-0  00000+0 0  9998
2 40534  54.7929 327.7513 0027716   0.5575 359.4850  2.00568064 22220
GPS BIIF-10  (PRN 08)   
1 40730U 15033A   18097.25815924 -.00000086  00000-0  00000+0 0  9991
2 40730  55.5206  28.0580 0035960 328.3620  31.4235  2.00578954 19984
GPS BIIF-11  (PRN 10)   
1 41019U 15062A   18097.30369642 -.00000005  00000-0  00000+0 0  9992
2 41019  55.0580 148.5974 0035221 204.8532 155.0453  2.00564377 17808
GPS BIIF-12  (PRN 32)   
1 41328U 16007A   18096.89270165 -.00000018  00000-0  00000+0 0  9993
2 41328  54.8451 208.3334 0020454 215.0432 144.8256  2.00565965 15859
